[Satellite]
VERSION=1.1
NAME=EXPRESS-AM 22
NICKNAME=EXPRESS-AM 22
TLE1=1 28134U 03060A   17186.02410455 -.00000142  00000-0  00000-0 0  9999
TLE2=2 28134   0.4885  91.4993 0000270   8.6408 271.8377  1.00271995 49490
